[{"OBJECT_NAME":"STARLINK-30353","OBJECT_ID":"2023-161S","EPOCH":"2026-03-13T05:58:38.860032","MEAN_MOTION":15.30212716,"ECCENTRICITY":9.281e-5,"INCLINATION":53.1598,"RA_OF_ASC_NODE":149.2089,"ARG_OF_PERICENTER":90.0431,"MEAN_ANOMALY":270.0676,"EPHEMERIS_TYPE":0,"CLASSIFICATION_TYPE":"U","NORAD_CAT_ID":58113,"ELEMENT_SET_NO":999,"REV_AT_EPOCH":13496,"BSTAR":-2.8483427e-5,"MEAN_MOTION_DOT":-1.203e-5,"MEAN_MOTION_DDOT":0},{"OBJECT_NAME":"STARLINK-30572","OBJECT_ID":"2023-161T","EPOCH":"2026-03-13T05:40:25.569984","MEAN_MOTION":15.30195922,"ECCENTRICITY":0.00011347,"INCLINATION":53.1577,"RA_OF_ASC_NODE":149.1233,"ARG_OF_PERICENTER":73.1236,"MEAN_ANOMALY":286.9889,"EPHEMERIS_TYPE":0,"CLASSIFICATION_TYPE":"U","NORAD_CAT_ID":58114,"ELEMENT_SET_NO":999,"REV_AT_EPOCH":13496,"BSTAR":0.00018430394,"MEAN_MOTION_DOT":5.103e-5,"MEAN_MOTION_DDOT":0},{"OBJECT_NAME":"STARLINK-30580","OBJECT_ID":"2023-161U","EPOCH":"2026-03-13T14:26:45.358368","MEAN_MOTION":15.30187452,"ECCENTRICITY":0.0001205,"INCLINATION":53.1587,"RA_OF_ASC_NODE":147.1216,"ARG_OF_PERICENTER":73.6599,"MEAN_ANOMALY":286.4534,"EPHEMERIS_TYPE":0,"CLASSIFICATION_TYPE":"U","NORAD_CAT_ID":58115,"ELEMENT_SET_NO":999,"REV_AT_EPOCH":13501,"BSTAR":3.3521469e-5,"MEAN_MOTION_DOT":6.33e-6,"MEAN_MOTION_DDOT":0},{"OBJECT_NAME":"STARLINK-30493","OBJECT_ID":"2023-161V","EPOCH":"2026-03-12T12:39:31.152960","MEAN_MOTION":15.30199665,"ECCENTRICITY":9.28e-5,"INCLINATION":53.1605,"RA_OF_ASC_NODE":152.5243,"ARG_OF_PERICENTER":102.2534,"MEAN_ANOMALY":257.8571,"EPHEMERIS_TYPE":0,"CLASSIFICATION_TYPE":"U","NORAD_CAT_ID":58116,"ELEMENT_SET_NO":999,"REV_AT_EPOCH":13485,"BSTAR":1.4843e-6,"MEAN_MOTION_DOT":-3.15e-6,"MEAN_MOTION_DDOT":0},{"OBJECT_NAME":"STARLINK-30601","OBJECT_ID":"2023-161W","EPOCH":"2026-03-13T13:53:29.411232","MEAN_MOTION":15.3018971,"ECCENTRICITY":0.00010626,"INCLINATION":53.1596,"RA_OF_ASC_NODE":147.7099,"ARG_OF_PERICENTER":79.1445,"MEAN_ANOMALY":280.9676,"EPHEMERIS_TYPE":0,"CLASSIFICATION_TYPE":"U","NORAD_CAT_ID":58117,"ELEMENT_SET_NO":999,"REV_AT_EPOCH":13501,"BSTAR":3.8417951e-5,"MEAN_MOTION_DOT":7.79e-6,"MEAN_MOTION_DDOT":0},{"OBJECT_NAME":"STARLINK-30795","OBJECT_ID":"2023-162A","EPOCH":"2026-03-13T10:11:14.271072","MEAN_MOTION":15.26750664,"ECCENTRICITY":0.00015808,"INCLINATION":43.0006,"RA_OF_ASC_NODE":110.9484,"ARG_OF_PERICENTER":288.7889,"MEAN_ANOMALY":71.279,"EPHEMERIS_TYPE":0,"CLASSIFICATION_TYPE":"U","NORAD_CAT_ID":58118,"ELEMENT_SET_NO":999,"REV_AT_EPOCH":13288,"BSTAR":0.00020911104,"MEAN_MOTION_DOT":5.355e-5,"MEAN_MOTION_DDOT":0},{"OBJECT_NAME":"STARLINK-30765","OBJECT_ID":"2023-162B","EPOCH":"2026-03-13T11:41:51.175968","MEAN_MOTION":15.26709782,"ECCENTRICITY":0.00014477,"INCLINATION":43.002,"RA_OF_ASC_NODE":110.5427,"ARG_OF_PERICENTER":264.8002,"MEAN_ANOMALY":95.2684,"EPHEMERIS_TYPE":0,"CLASSIFICATION_TYPE":"U","NORAD_CAT_ID":58119,"ELEMENT_SET_NO":999,"REV_AT_EPOCH":13289,"BSTAR":-5.3092138e-5,"MEAN_MOTION_DOT":-1.682e-5,"MEAN_MOTION_DDOT":0},{"OBJECT_NAME":"STARLINK-30768","OBJECT_ID":"2023-162C","EPOCH":"2026-03-13T11:30:04.486176","MEAN_MOTION":15.26750937,"ECCENTRICITY":3.707e-5,"INCLINATION":43,"RA_OF_ASC_NODE":110.4959,"ARG_OF_PERICENTER":240.1067,"MEAN_ANOMALY":119.9747,"EPHEMERIS_TYPE":0,"CLASSIFICATION_TYPE":"U","NORAD_CAT_ID":58120,"ELEMENT_SET_NO":999,"REV_AT_EPOCH":13289,"BSTAR":-1.786633e-6,"MEAN_MOTION_DOT":-3.07e-6,"MEAN_MOTION_DDOT":0},{"OBJECT_NAME":"STARLINK-30799","OBJECT_ID":"2023-162D","EPOCH":"2026-03-13T11:57:53.470656","MEAN_MOTION":15.26751617,"ECCENTRICITY":0.00012278,"INCLINATION":43.0023,"RA_OF_ASC_NODE":110.6244,"ARG_OF_PERICENTER":271.5439,"MEAN_ANOMALY":88.5272,"EPHEMERIS_TYPE":0,"CLASSIFICATION_TYPE":"U","NORAD_CAT_ID":58121,"ELEMENT_SET_NO":999,"REV_AT_EPOCH":13289,"BSTAR":5.078965e-5,"MEAN_MOTION_DOT":1.103e-5,"MEAN_MOTION_DDOT":0},{"OBJECT_NAME":"STARLINK-30759","OBJECT_ID":"2023-162E","EPOCH":"2026-03-13T11:38:57.861888","MEAN_MOTION":15.26743886,"ECCENTRICITY":0.00010723,"INCLINATION":43.0015,"RA_OF_ASC_NODE":110.5406,"ARG_OF_PERICENTER":281.3393,"MEAN_ANOMALY":78.7338,"EPHEMERIS_TYPE":0,"CLASSIFICATION_TYPE":"U","NORAD_CAT_ID":58122,"ELEMENT_SET_NO":999,"REV_AT_EPOCH":13290,"BSTAR":9.7201605e-5,"MEAN_MOTION_DOT":2.349e-5,"MEAN_MOTION_DDOT":0},{"OBJECT_NAME":"STARLINK-30781","OBJECT_ID":"2023-162F","EPOCH":"2026-03-13T14:00:01.000224","MEAN_MOTION":15.26716194,"ECCENTRICITY":0.00014014,"INCLINATION":43.0017,"RA_OF_ASC_NODE":110.3135,"ARG_OF_PERICENTER":271.16,"MEAN_ANOMALY":132.0039,"EPHEMERIS_TYPE":0,"CLASSIFICATION_TYPE":"U","NORAD_CAT_ID":58123,"ELEMENT_SET_NO":999,"REV_AT_EPOCH":573,"BSTAR":0.002579113,"MEAN_MOTION_DOT":0.00069526,"MEAN_MOTION_DDOT":0},{"OBJECT_NAME":"STARLINK-30754","OBJECT_ID":"2023-162G","EPOCH":"2026-03-13T12:28:52.095360","MEAN_MOTION":15.26846786,"ECCENTRICITY":0.00019172,"INCLINATION":43.0002,"RA_OF_ASC_NODE":110.7835,"ARG_OF_PERICENTER":174.5496,"MEAN_ANOMALY":185.5377,"EPHEMERIS_TYPE":0,"CLASSIFICATION_TYPE":"U","NORAD_CAT_ID":58124,"ELEMENT_SET_NO":999,"REV_AT_EPOCH":12710,"BSTAR":0.000814989,"MEAN_MOTION_DOT":0.00021737,"MEAN_MOTION_DDOT":0},{"OBJECT_NAME":"STARLINK-30766","OBJECT_ID":"2023-162H","EPOCH":"2026-03-13T03:36:09.154080","MEAN_MOTION":15.27579222,"ECCENTRICITY":0.00016795,"INCLINATION":43.0042,"RA_OF_ASC_NODE":109.7728,"ARG_OF_PERICENTER":278.8277,"MEAN_ANOMALY":81.2385,"EPHEMERIS_TYPE":0,"CLASSIFICATION_TYPE":"U","NORAD_CAT_ID":58125,"ELEMENT_SET_NO":999,"REV_AT_EPOCH":13287,"BSTAR":0.00010012944,"MEAN_MOTION_DOT":2.494e-5,"MEAN_MOTION_DDOT":0},{"OBJECT_NAME":"STARLINK-30767","OBJECT_ID":"2023-162J","EPOCH":"2026-03-13T11:23:14.942400","MEAN_MOTION":15.27577711,"ECCENTRICITY":0.00030986,"INCLINATION":42.9955,"RA_OF_ASC_NODE":107.9025,"ARG_OF_PERICENTER":68.5746,"MEAN_ANOMALY":291.5436,"EPHEMERIS_TYPE":0,"CLASSIFICATION_TYPE":"U","NORAD_CAT_ID":58126,"ELEMENT_SET_NO":999,"REV_AT_EPOCH":13292,"BSTAR":0.00022904286,"MEAN_MOTION_DOT":6.045e-5,"MEAN_MOTION_DDOT":0},{"OBJECT_NAME":"STARLINK-30790","OBJECT_ID":"2023-162K","EPOCH":"2026-03-13T10:42:49.326336","MEAN_MOTION":15.1347978,"ECCENTRICITY":0.0010048,"INCLINATION":42.9989,"RA_OF_ASC_NODE":106.8749,"ARG_OF_PERICENTER":61.5307,"MEAN_ANOMALY":298.6551,"EPHEMERIS_TYPE":0,"CLASSIFICATION_TYPE":"U","NORAD_CAT_ID":58127,"ELEMENT_SET_NO":999,"REV_AT_EPOCH":13293,"BSTAR":0.0021952853,"MEAN_MOTION_DOT":0.00040022,"MEAN_MOTION_DDOT":0},{"OBJECT_NAME":"STARLINK-30787","OBJECT_ID":"2023-162L","EPOCH":"2026-03-13T03:34:19.339680","MEAN_MOTION":15.27580613,"ECCENTRICITY":0.00031884,"INCLINATION":43.0069,"RA_OF_ASC_NODE":109.7637,"ARG_OF_PERICENTER":288.9482,"MEAN_ANOMALY":71.1024,"EPHEMERIS_TYPE":0,"CLASSIFICATION_TYPE":"U","NORAD_CAT_ID":58128,"ELEMENT_SET_NO":999,"REV_AT_EPOCH":13287,"BSTAR":0.00035634757,"MEAN_MOTION_DOT":9.557e-5,"MEAN_MOTION_DDOT":0}]
