STARLINK-30353          
1 58113U 23161S   26072.24906088 -.00001203  00000+0 -28483-4 0  9991
2 58113  53.1598 149.2089 0000928  90.0431 270.0676 15.30212716134969
STARLINK-30572          
1 58114U 23161T   26072.23640706  .00005103  00000+0  18430-3 0  9994
2 58114  53.1577 149.1233 0001134  73.1236 286.9889 15.30195922134963
STARLINK-30580          
1 58115U 23161U   26072.60191387  .00000633  00000+0  33521-4 0  9994
2 58115  53.1587 147.1216 0001205  73.6599 286.4534 15.30187452135018
STARLINK-30493          
1 58116U 23161V   26071.52744390 -.00000315  00000+0  14843-5 0  9998
2 58116  53.1605 152.5243 0000928 102.2534 257.8571 15.30199665134852
STARLINK-30601          
1 58117U 23161W   26072.57881263  .00000779  00000+0  38418-4 0  9992
2 58117  53.1596 147.7099 0001062  79.1445 280.9676 15.30189710135012
STARLINK-30795          
1 58118U 23162A   26072.42447073  .00005355  00000+0  20911-3 0  9998
2 58118  43.0006 110.9484 0001580 288.7889  71.2790 15.26750664132889
STARLINK-30765          
1 58119U 23162B   26072.48739787 -.00001682  00000+0 -53092-4 0  9999
2 58119  43.0020 110.5427 0001447 264.8002  95.2684 15.26709782132897
STARLINK-30768          
1 58120U 23162C   26072.47921859 -.00000307  00000+0 -17866-5 0  9996
2 58120  43.0000 110.4959 0000370 240.1067 119.9747 15.26750937132890
STARLINK-30799          
1 58121U 23162D   26072.49853554  .00001103  00000+0  50790-4 0  9990
2 58121  43.0023 110.6244 0001227 271.5439  88.5272 15.26751617132898
STARLINK-30759          
1 58122U 23162E   26072.48539192  .00002349  00000+0  97202-4 0  9991
2 58122  43.0015 110.5406 0001072 281.3393  78.7338 15.26743886132900
STARLINK-30781          
1 58123U 23162F   26072.58334491  .00069526  00000+0  25791-2 0  9990
2 58123  43.0017 110.3135 0001401 271.1600 132.0039 15.26716194  5738
STARLINK-30754          
1 58124U 23162G   26072.52004740  .00021737  00000+0  81499-3 0  9996
2 58124  43.0002 110.7835 0001917 174.5496 185.5377 15.26846786127100
STARLINK-30766          
1 58125U 23162H   26072.15010595  .00002494  00000+0  10013-3 0  9994
2 58125  43.0042 109.7728 0001679 278.8277  81.2385 15.27579222132874
STARLINK-30767          
1 58126U 23162J   26072.47447850  .00006045  00000+0  22904-3 0  9996
2 58126  42.9955 107.9025 0003098  68.5746 291.5436 15.27577711132928
STARLINK-30790          
1 58127U 23162K   26072.44640424  .00040022  00000+0  21953-2 0  9991
2 58127  42.9989 106.8749 0010048  61.5307 298.6551 15.13479780132935
STARLINK-30787          
1 58128U 23162L   26072.14883495  .00009557  00000+0  35635-3 0  9997
2 58128  43.0069 109.7637 0003188 288.9482  71.1024 15.27580613132876
